{
  "type": "FeatureCollection",
  "features": [
    {
      "type": "Feature",
      "properties": {
        "norad_id": 24876,
        "name": "GPS BIIR-2  (PRN 13)",
        "group": "gps-ops",
        "lat": 55.88136880518213,
        "lon": -167.6171530977611,
        "alt_km": 19955.666927632057,
        "timestamp": "2025-12-23T07:45:09.663167+00:00",
        "meta_object_name": "GPS BIIR-2  (PRN 13)",
        "meta_object_id": "1997-035A",
        "meta_epoch": "2025-12-22T04:56:13.490880",
        "meta_mean_motion": 2.00563727,
        "meta_eccentricity": 0.00968316,
        "meta_inclination": 55.8997,
        "meta_ra_of_asc_node": 105.4987,
        "meta_arg_of_pericenter": 56.961,
        "meta_mean_anomaly": 303.9513,
        "meta_ephemeris_type": 0,
        "meta_classification_type": "U",
        "meta_norad_cat_id": 24876,
        "meta_element_set_no": 999,
        "meta_rev_at_epoch": 20840,
        "meta_bstar": 0,
        "meta_mean_motion_dot": 1.2e-07,
        "meta_mean_motion_ddot": 0,
        "tle_line1": "1 24876U 97035A   25356.20571170  .00000012  00000+0  00000+0 0  9996",
        "tle_line2": "2 24876  55.8997 105.4987 0096831  56.9610 303.9513  2.00563727208400"
      },
      "geometry": {
        "type": "Point",
        "coordinates": [
          -167.6171530977611,
          55.88136880518213
        ]
      }
    },
    {
      "type": "Feature",
      "properties": {
        "norad_id": 26360,
        "name": "GPS BIIR-4  (PRN 20)",
        "group": "gps-ops",
        "lat": 0.5452993175719789,
        "lon": -153.95734267664432,
        "alt_km": 20135.94918734265,
        "timestamp": "2025-12-23T07:45:09.663194+00:00",
        "meta_object_name": "GPS BIIR-4  (PRN 20)",
        "meta_object_id": "2000-025A",
        "meta_epoch": "2025-12-22T19:27:46.815264",
        "meta_mean_motion": 2.0056687,
        "meta_eccentricity": 0.00389018,
        "meta_inclination": 55.0511,
        "meta_ra_of_asc_node": 26.4306,
        "meta_arg_of_pericenter": 242.9472,
        "meta_mean_anomaly": 287.0485,
        "meta_ephemeris_type": 0,
        "meta_classification_type": "U",
        "meta_norad_cat_id": 26360,
        "meta_element_set_no": 999,
        "meta_rev_at_epoch": 18773,
        "meta_bstar": 0,
        "meta_mean_motion_dot": -5.8e-07,
        "meta_mean_motion_ddot": 0,
        "tle_line1": "1 26360U 00025A   25356.81095851 -.00000058  00000+0  00000+0 0  9994",
        "tle_line2": "2 26360  55.0511  26.4306 0038901 242.9472 287.0485  2.00566870187732"
      },
      "geometry": {
        "type": "Point",
        "coordinates": [
          -153.95734267664432,
          0.5452993175719789
        ]
      }
    },
    {
      "type": "Feature",
      "properties": {
        "norad_id": 26407,
        "name": "GPS BIIR-5  (PRN 22)",
        "group": "gps-ops",
        "lat": 16.83560758820153,
        "lon": -125.54815537845569,
        "alt_km": 20110.967199349077,
        "timestamp": "2025-12-23T07:45:09.663210+00:00",
        "meta_object_name": "GPS BIIR-5  (PRN 22)",
        "meta_object_id": "2000-040A",
        "meta_epoch": "2025-12-22T19:22:12.785952",
        "meta_mean_motion": 2.00568096,
        "meta_eccentricity": 0.01254555,
        "meta_inclination": 54.8886,
        "meta_ra_of_asc_node": 222.1687,
        "meta_arg_of_pericenter": 301.9761,
        "meta_mean_anomaly": 64.903,
        "meta_ephemeris_type": 0,
        "meta_classification_type": "U",
        "meta_norad_cat_id": 26407,
        "meta_element_set_no": 999,
        "meta_rev_at_epoch": 18641,
        "meta_bstar": 0,
        "meta_mean_motion_dot": 6.7e-07,
        "meta_mean_motion_ddot": 0,
        "tle_line1": "1 26407U 00040A   25356.80709243  .00000067  00000+0  00000+0 0  9998",
        "tle_line2": "2 26407  54.8886 222.1687 0125455 301.9761  64.9030  2.00568096186415"
      },
      "geometry": {
        "type": "Point",
        "coordinates": [
          -125.54815537845569,
          16.83560758820153
        ]
      }
    },
    {
      "type": "Feature",
      "properties": {
        "norad_id": 27663,
        "name": "GPS BIIR-8  (PRN 16)",
        "group": "gps-ops",
        "lat": 18.641579727456527,
        "lon": 28.26066460137763,
        "alt_km": 20275.913567386524,
        "timestamp": "2025-12-23T07:45:09.663223+00:00",
        "meta_object_name": "GPS BIIR-8  (PRN 16)",
        "meta_object_id": "2003-005A",
        "meta_epoch": "2025-12-22T15:01:01.940160",
        "meta_mean_motion": 2.00570357,
        "meta_eccentricity": 0.0147807,
        "meta_inclination": 54.9212,
        "meta_ra_of_asc_node": 221.985,
        "meta_arg_of_pericenter": 51.9453,
        "meta_mean_anomaly": 319.9429,
        "meta_ephemeris_type": 0,
        "meta_classification_type": "U",
        "meta_norad_cat_id": 27663,
        "meta_element_set_no": 999,
        "meta_rev_at_epoch": 16777,
        "meta_bstar": 0,
        "meta_mean_motion_dot": 6.7e-07,
        "meta_mean_motion_ddot": 0,
        "tle_line1": "1 27663U 03005A   25356.62571690  .00000067  00000+0  00000+0 0  9990",
        "tle_line2": "2 27663  54.9212 221.9850 0147807  51.9453 319.9429  2.00570357167774"
      },
      "geometry": {
        "type": "Point",
        "coordinates": [
          28.26066460137763,
          18.641579727456527
        ]
      }
    },
    {
      "type": "Feature",
      "properties": {
        "norad_id": 28190,
        "name": "GPS BIIR-11 (PRN 19)",
        "group": "gps-ops",
        "lat": -35.825100157550914,
        "lon": -107.5827587271033,
        "alt_km": 20426.870983101664,
        "timestamp": "2025-12-23T07:45:09.663237+00:00",
        "meta_object_name": "GPS BIIR-11 (PRN 19)",
        "meta_object_id": "2004-009A",
        "meta_epoch": "2025-12-22T01:59:41.237952",
        "meta_mean_motion": 2.00560473,
        "meta_eccentricity": 0.01084919,
        "meta_inclination": 54.9772,
        "meta_ra_of_asc_node": 282.8425,
        "meta_arg_of_pericenter": 167.7907,
        "meta_mean_anomaly": 330.6754,
        "meta_ephemeris_type": 0,
        "meta_classification_type": "U",
        "meta_norad_cat_id": 28190,
        "meta_element_set_no": 999,
        "meta_rev_at_epoch": 15939,
        "meta_bstar": 0,
        "meta_mean_motion_dot": -2.4e-07,
        "meta_mean_motion_ddot": 0,
        "tle_line1": "1 28190U 04009A   25356.08311618 -.00000024  00000+0  00000+0 0  9997",
        "tle_line2": "2 28190  54.9772 282.8425 0108491 167.7907 330.6754  2.00560473159399"
      },
      "geometry": {
        "type": "Point",
        "coordinates": [
          -107.5827587271033,
          -35.825100157550914
        ]
      }
    },
    {
      "type": "Feature",
      "properties": {
        "norad_id": 28474,
        "name": "GPS BIIR-13 (PRN 02)",
        "group": "gps-ops",
        "lat": 13.042416428259676,
        "lon": -18.781653606157256,
        "alt_km": 19991.197499176058,
        "timestamp": "2025-12-23T07:45:09.663252+00:00",
        "meta_object_name": "GPS BIIR-13 (PRN 02)",
        "meta_object_id": "2004-045A",
        "meta_epoch": "2025-12-21T13:21:16.085088",
        "meta_mean_motion": 2.00569985,
        "meta_eccentricity": 0.0170919,
        "meta_inclination": 55.2363,
        "meta_ra_of_asc_node": 332.0513,
        "meta_arg_of_pericenter": 309.6441,
        "meta_mean_anomaly": 228.908,
        "meta_ephemeris_type": 0,
        "meta_classification_type": "U",
        "meta_norad_cat_id": 28474,
        "meta_element_set_no": 999,
        "meta_rev_at_epoch": 15486,
        "meta_bstar": 0,
        "meta_mean_motion_dot": -7.1e-07,
        "meta_mean_motion_ddot": 0,
        "tle_line1": "1 28474U 04045A   25355.55643617 -.00000071  00000+0  00000+0 0  9992",
        "tle_line2": "2 28474  55.2363 332.0513 0170919 309.6441 228.9080  2.00569985154869"
      },
      "geometry": {
        "type": "Point",
        "coordinates": [
          -18.781653606157256,
          13.042416428259676
        ]
      }
    },
    {
      "type": "Feature",
      "properties": {
        "norad_id": 28874,
        "name": "GPS BIIRM-1 (PRN 17)",
        "group": "gps-ops",
        "lat": -20.8033384006719,
        "lon": -95.1354571533437,
        "alt_km": 19916.481664859366,
        "timestamp": "2025-12-23T07:45:09.663264+00:00",
        "meta_object_name": "GPS BIIRM-1 (PRN 17)",
        "meta_object_id": "2005-038A",
        "meta_epoch": "2025-12-22T20:53:47.343840",
        "meta_mean_motion": 2.00577767,
        "meta_eccentricity": 0.01313247,
        "meta_inclination": 55.0229,
        "meta_ra_of_asc_node": 280.2931,
        "meta_arg_of_pericenter": 293.7898,
        "meta_mean_anomaly": 72.9645,
        "meta_ephemeris_type": 0,
        "meta_classification_type": "U",
        "meta_norad_cat_id": 28874,
        "meta_element_set_no": 999,
        "meta_rev_at_epoch": 14830,
        "meta_bstar": 0,
        "meta_mean_motion_dot": -2e-07,
        "meta_mean_motion_ddot": 0,
        "tle_line1": "1 28874U 05038A   25356.87068685 -.00000020  00000+0  00000+0 0  9995",
        "tle_line2": "2 28874  55.0229 280.2931 0131324 293.7898  72.9645  2.00577767148309"
      },
      "geometry": {
        "type": "Point",
        "coordinates": [
          -95.1354571533437,
          -20.8033384006719
        ]
      }
    }
  ]
}